OBJECT_NAME,OBJECT_ID,EPOCH,MEAN_MOTION,ECCENTRICITY,INCLINATION,RA_OF_ASC_NODE,ARG_OF_PERICENTER,MEAN_ANOMALY,EPHEMERIS_TYPE,CLASSIFICATION_TYPE,NORAD_CAT_ID,ELEMENT_SET_NO,REV_AT_EPOCH,BSTAR,MEAN_MOTION_DOT,MEAN_MOTION_DDOT
SWARM A,2013-067B,2026-06-09T11:26:22.186752,15.50798144,.00029925,87.3329,59.1054,92.3947,267.7656,0,U,39452,999,70505,.17348636E-3,.10036E-3,0
SWARM C,2013-067C,2026-06-09T11:26:12.235200,15.50800666,.00029687,87.3329,57.6866,92.5362,267.6239,0,U,39453,999,70501,.17269052E-3,.9991E-4,0
BRITE-CA1 (TORONTO),2014-033L,2026-06-09T08:38:27.660768,14.72665836,.00774217,97.9729,289.4327,302.5173,56.8569,0,U,40020,999,64106,.10078949E-3,.618E-5,0
OCO 2,2014-035A,2026-06-09T12:47:43.700352,14.57105005,.00014886,98.2016,101.9429,86.8396,273.2973,0,U,40059,999,63493,.93581822E-4,.376E-5,0
BRITE-PL2 (HEWELIUSZ),2014-049B,2026-06-09T12:57:43.756992,14.94569959,.00151668,97.9090,272.4818,131.1884,229.0646,0,U,40119,999,64030,.18026139E-3,.1894E-4,0
MMS 1,2015-011A,2026-06-09T14:00:04.000032,0.28317420,.83252802,72.1001,348.8939,167.3102,242.7615,0,U,40482,999,138,0,-.9E-7,0
MMS 2,2015-011B,2026-06-09T14:00:04.000032,0.28317433,.83260637,72.1003,348.8961,167.3159,242.7498,0,U,40483,999,138,0,-.9E-7,0
MMS 3,2015-011C,2026-06-09T14:00:04.000032,0.28317390,.83252502,72.1034,348.9006,167.3104,242.7462,0,U,40484,999,138,0,-.9E-7,0
MMS 4,2015-011D,2026-06-09T14:00:04.000032,0.28317373,.83248551,72.0995,348.8963,167.3182,242.7346,0,U,40485,999,138,0,-.9E-7,0
ASTROSAT,2015-052A,2026-06-09T06:54:17.866656,14.82494301,.00085298,5.9953,212.2248,281.7410,78.1761,0,U,40930,999,57865,.10479036E-3,.1533E-4,0
DAMPE,2015-078A,2026-06-09T14:03:21.824064,15.30767038,.00137277,97.4562,166.0156,100.5032,259.7756,0,U,41173,999,58338,.53371566E-4,.1513E-4,0
PISAT,2016-059B,2026-06-09T12:21:38.668896,14.68970440,.00278368,97.8178,161.2976,228.0857,131.7975,0,U,41784,999,51861,.15580809E-3,.87E-5,0
HXMT (HUIYAN),2017-034A,2026-06-09T15:15:05.247360,15.18425897,.00301893,43.0132,225.0901,97.3392,263.0889,0,U,42758,999,49651,.20964387E-3,.4201E-4,0
FLYING LAPTOP,2017-042G,2026-06-09T14:04:27.100128,15.01097072,.00191911,97.4658,316.4141,146.5534,213.6907,0,U,42831,999,48531,.29804059E-3,.3771E-4,0
ZHANGHENG 1-01 (CSES-1),2018-015C,2026-06-09T15:18:43.354656,15.20714657,.00171279,97.6865,326.1469,294.8498,65.0956,0,U,43194,999,46349,.27172984E-3,.5925E-4,0
SALSAT,2020-068K,2026-06-09T11:48:56.784960,15.29688082,.00087425,97.8855,163.0891,339.5990,20.4898,0,U,46495,999,31418,.25454403E-3,.7245E-4,0
IXPE,2021-121A,2026-06-09T14:00:04.000032,15.10180153,.00075187,0.2309,14.9857,325.7085,293.7309,0,U,49954,999,532,.47763645E-3,.8963E-4,0
SMILE,2026-109A,2026-05-24T15:40:35.120928,14.57062785,.00091232,70.0007,229.2745,259.5159,100.4951,0,U,69123,999,80,-.42378883E-3,-.1976E-4,0
