SWARM A                 
1 39452U 13067B   26160.47664568  .00010036  00000+0  17349-3 0  9997
2 39452  87.3329  59.1054 0002992  92.3947 267.7656 15.50798144705057
SWARM C                 
1 39453U 13067C   26160.47653050  .00009991  00000+0  17269-3 0  9991
2 39453  87.3329  57.6866 0002968  92.5362 267.6239 15.50800666705013
BRITE-CA1 (TORONTO)     
1 40020U 14033L   26160.36004237  .00000618  00000+0  10079-3 0  9991
2 40020  97.9729 289.4327 0077421 302.5173  56.8569 14.72665836641062
OCO 2                   
1 40059U 14035A   26160.53314468  .00000376  00000+0  93582-4 0  9996
2 40059  98.2016 101.9429 0001488  86.8396 273.2973 14.57105005634939
BRITE-PL2 (HEWELIUSZ)   
1 40119U 14049B   26160.54008978  .00001894  00000+0  18026-3 0  9990
2 40119  97.9090 272.4818 0015166 131.1884 229.0646 14.94569959640301
MMS 1                   
1 40482U 15011A   26160.58337963 -.00000009  00000+0  00000+0 0  9993
2 40482  72.1001 348.8939 8325280 167.3102 242.7615  0.28317420  1389
MMS 2                   
1 40483U 15011B   26160.58337963 -.00000009  00000+0  00000+0 0  9994
2 40483  72.1003 348.8961 8326063 167.3159 242.7498  0.28317433  1382
MMS 3                   
1 40484U 15011C   26160.58337963 -.00000009  00000+0  00000+0 0  9995
2 40484  72.1034 348.9006 8325250 167.3104 242.7462  0.28317390  1388
MMS 4                   
1 40485U 15011D   26160.58337963 -.00000009  00000+0  00000+0 0  9996
2 40485  72.0995 348.8963 8324855 167.3182 242.7346  0.28317373  1383
ASTROSAT                
1 40930U 15052A   26160.28770679  .00001533  00000+0  10479-3 0  9995
2 40930   5.9953 212.2248 0008529 281.7410  78.1761 14.82494301578654
DAMPE                   
1 41173U 15078A   26160.58566926  .00001513  00000+0  53372-4 0  9992
2 41173  97.4562 166.0156 0013727 100.5032 259.7756 15.30767038583385
PISAT                   
1 41784U 16059B   26160.51503089  .00000870  00000+0  15581-3 0  9998
2 41784  97.8178 161.2976 0027836 228.0857 131.7975 14.68970440518613
HXMT (HUIYAN)           
1 42758U 17034A   26160.63547740  .00004201  00000+0  20964-3 0  9992
2 42758  43.0132 225.0901 0030189  97.3392 263.0889 15.18425897496515
FLYING LAPTOP           
1 42831U 17042G   26160.58642477  .00003771  00000+0  29804-3 0  9993
2 42831  97.4658 316.4141 0019191 146.5534 213.6907 15.01097072485319
ZHANGHENG 1-01 (CSES-1) 
1 43194U 18015C   26160.63800179  .00005925  00000+0  27173-3 0  9998
2 43194  97.6865 326.1469 0017127 294.8498  65.0956 15.20714657463492
SALSAT                  
1 46495U 20068K   26160.49232390  .00007245  00000+0  25454-3 0  9991
2 46495  97.8855 163.0891 0008742 339.5990  20.4898 15.29688082314186
IXPE                    
1 49954U 21121A   26160.58337963  .00008963  00000+0  47764-3 0  9993
2 49954   0.2309  14.9857 0007518 325.7085 293.7309 15.10180153  5320
SMILE                   
1 69123U 26109A   26144.65318427 -.00001976  00000+0 -42379-3 0  9994
2 69123  70.0007 229.2745 0009123 259.5159 100.4951 14.57062785   802
